[{"OBJECT_NAME":"JILIN-1 08","OBJECT_ID":"2018-008F","EPOCH":"2026-03-09T22:37:53.184288","MEAN_MOTION":15.32205976,"ECCENTRICITY":0.00081321,"INCLINATION":97.1902,"RA_OF_ASC_NODE":90.9961,"ARG_OF_PERICENTER":76.0646,"MEAN_ANOMALY":284.15,"EPHEMERIS_TYPE":0,"CLASSIFICATION_TYPE":"U","NORAD_CAT_ID":43160,"ELEMENT_SET_NO":999,"REV_AT_EPOCH":44974,"BSTAR":0.00036689195,"MEAN_MOTION_DOT":0.00011349,"MEAN_MOTION_DDOT":0},{"OBJECT_NAME":"STARLINK-31450","OBJECT_ID":"2024-036J","EPOCH":"2026-03-09T06:54:26.460000","MEAN_MOTION":15.30189795,"ECCENTRICITY":0.00013241,"INCLINATION":53.1606,"RA_OF_ASC_NODE":79.8551,"ARG_OF_PERICENTER":88.416,"MEAN_ANOMALY":271.6992,"EPHEMERIS_TYPE":0,"CLASSIFICATION_TYPE":"U","NORAD_CAT_ID":59006,"ELEMENT_SET_NO":999,"REV_AT_EPOCH":11526,"BSTAR":1.7071386e-5,"MEAN_MOTION_DOT":1.46e-6,"MEAN_MOTION_DDOT":0}]
